{"type": "FeatureCollection", "features": [{"type": "Feature", "geometry": {"type": "Point", "coordinates": [5.198, 5.605]}, "properties": {"site_name": "Escravos", "avg_flared_mscf_per_day": 76035, "state_guess": "Delta"}}, {"type": "Feature", "geometry": {"type": "Point", "coordinates": [5.45, 5.3]}, "properties": {"site_name": "Forcados", "avg_flared_mscf_per_day": 9409, "state_guess": "Delta"}}, {"type": "Feature", "geometry": {"type": "Point", "coordinates": [7.17, 4.457]}, "properties": {"site_name": "Bonny", "avg_flared_mscf_per_day": 114781, "state_guess": "Rivers"}}, {"type": "Feature", "geometry": {"type": "Point", "coordinates": [6.241, 4.318]}, "properties": {"site_name": "Brass", "avg_flared_mscf_per_day": 109473, "state_guess": "Rivers"}}, {"type": "Feature", "geometry": {"type": "Point", "coordinates": [6.666, 5.558]}, "properties": {"site_name": "Ebocha", "avg_flared_mscf_per_day": 40719, "state_guess": "Rivers"}}, {"type": "Feature", "geometry": {"type": "Point", "coordinates": [6.006, 5.493]}, "properties": {"site_name": "Ughelli", "avg_flared_mscf_per_day": 41709, "state_guess": "Rivers"}}, {"type": "Feature", "geometry": {"type": "Point", "coordinates": [6.604, 5.288]}, "properties": {"site_name": "Ogbogu", "avg_flared_mscf_per_day": 56548, "state_guess": "Rivers"}}, {"type": "Feature", "geometry": {"type": "Point", "coordinates": [5.871, 5.416]}, "properties": {"site_name": "Utorogu", "avg_flared_mscf_per_day": 15701, "state_guess": "Delta"}}, {"type": "Feature", "geometry": {"type": "Point", "coordinates": [6.4, 4.963]}, "properties": {"site_name": "Agbada", "avg_flared_mscf_per_day": 78585, "state_guess": "Rivers"}}, {"type": "Feature", "geometry": {"type": "Point", "coordinates": [6.404, 4.536]}, "properties": {"site_name": "Nembe", "avg_flared_mscf_per_day": 107767, "state_guess": "Rivers"}}, {"type": "Feature", "geometry": {"type": "Point", "coordinates": [6.656, 4.965]}, "properties": {"site_name": "Obite", "avg_flared_mscf_per_day": 70039, "state_guess": "Rivers"}}, {"type": "Feature", "geometry": {"type": "Point", "coordinates": [6.701, 4.625]}, "properties": {"site_name": "Soku", "avg_flared_mscf_per_day": 74215, "state_guess": "Rivers"}}, {"type": "Feature", "geometry": {"type": "Point", "coordinates": [5.2, 4.25]}, "properties": {"site_name": "Bonga Offshore", "avg_flared_mscf_per_day": 44168, "state_guess": "Delta"}}, {"type": "Feature", "geometry": {"type": "Point", "coordinates": [5.7, 4.3]}, "properties": {"site_name": "Akpo Offshore", "avg_flared_mscf_per_day": 5797, "state_guess": "Delta"}}, {"type": "Feature", "geometry": {"type": "Point", "coordinates": [6.0, 4.35]}, "properties": {"site_name": "Egina Offshore", "avg_flared_mscf_per_day": 49926, "state_guess": "Delta"}}]}