{"type": "FeatureCollection", "features": [{"type": "Feature", "geometry": {"type": "LineString", "coordinates": [[5.198, 5.605], [5.404819829949145, 5.351251527843116], [5.7932, 5.5544]]}, "properties": {"from": "Escravos", "to": "Warri", "diameter_in": 24}}, {"type": "Feature", "geometry": {"type": "LineString", "coordinates": [[5.7932, 5.5544], [5.919092055750544, 5.654152330328739], [5.6037, 6.335]]}, "properties": {"from": "Warri", "to": "Benin City", "diameter_in": 24}}, {"type": "Feature", "geometry": {"type": "LineString", "coordinates": [[5.6037, 6.335], [4.237627679439044, 6.704096091828545], [3.3792, 6.5244]]}, "properties": {"from": "Benin City", "to": "Lagos", "diameter_in": 24}}, {"type": "Feature", "geometry": {"type": "LineString", "coordinates": [[5.7932, 5.5544], [6.511859403165518, 5.063808328375382], [7.0498, 4.8156]]}, "properties": {"from": "Warri", "to": "Port Harcourt", "diameter_in": 24}}, {"type": "Feature", "geometry": {"type": "LineString", "coordinates": [[5.7932, 5.5544], [6.1289236883534315, 6.6357458172370345], [6.6548, 7.5649]]}, "properties": {"from": "Warri", "to": "Ajaokuta", "diameter_in": 24}}, {"type": "Feature", "geometry": {"type": "LineString", "coordinates": [[6.6548, 7.5649], [7.044904148178036, 8.280911973105958], [7.3986, 9.0765]]}, "properties": {"from": "Ajaokuta", "to": "Abuja", "diameter_in": 36}}, {"type": "Feature", "geometry": {"type": "LineString", "coordinates": [[7.3986, 9.0765], [7.649010209189643, 9.556615008751697], [7.4165, 10.5105]]}, "properties": {"from": "Abuja", "to": "Kaduna", "diameter_in": 24}}, {"type": "Feature", "geometry": {"type": "LineString", "coordinates": [[7.4165, 10.5105], [8.24999654210456, 11.050100152766557], [8.5919, 12.0022]]}, "properties": {"from": "Kaduna", "to": "Kano", "diameter_in": 30}}]}